NORAD_CAT_ID,OBJECT_NAME,OBJECT_TYPE,EPOCH,MEAN_MOTION,ECCENTRICITY,INCLINATION,RA_OF_ASC_NODE,ARG_OF_PERICENTER,MEAN_ANOMALY,BSTAR,MEAN_MOTION_DOT,MEAN_MOTION_DDOT,TLE_LINE0,TLE_LINE1,TLE_LINE2,SEMIMAJOR_AXIS,PERIOD,APOGEE,PERIGEE,DECAYED
52993.0,STARLINK-4264,PAYLOAD,2022-09-07 04:00:00,15.26065618,0.0001804,53.2173,78.6361,39.705,205.5288,-0.044632,-0.01067439,0.0,0 STARLINK-4264,1 52993U 22076H   22250.16667824 -.01067439  00000-0 -44632-1 0  9998,2 52993  53.2173  78.6361 0001804  39.7050 205.5288 15.26065618 10145,6865.724,94.36,488.828,486.351,0.0
52993.0,STARLINK-4264,PAYLOAD,2022-09-07 14:00:01,15.25137365,0.0001702,53.2174,76.7136,38.3305,336.535,-0.047084,-0.0109252,0.0,0 STARLINK-4264,1 52993U 22076H   22250.58334491 -.01092520  00000-0 -47084-1 0  9998,2 52993  53.2174  76.7136 0001702  38.3305 336.5350 15.25137365  1301,6868.51,94.418,491.544,489.206,0.0
52993.0,STARLINK-4264,PAYLOAD,2022-09-07 22:00:00,15.24355037,0.0001823,53.2175,75.1776,34.447,11.1206,-0.046859,-0.01064496,0.0,0 STARLINK-4264,1 52993U 22076H   22250.91667824 -.01064496  00000-0 -46859-1 0  9994,2 52993  53.2175  75.1776 0001823  34.4470  11.1206 15.24355037  1302,6870.86,94.466,493.977,491.472,0.0
52993.0,STARLINK-4264,PAYLOAD,2022-09-08 06:00:00,15.23595573,0.0001867,53.2175,73.6413,33.1383,42.2067,-0.047948,-0.01064688,0.0,0 STARLINK-4264,1 52993U 22076H   22251.25001157 -.01064688  00000-0 -47948-1 0  9996,2 52993  53.2175  73.6413 0001867  33.1383  42.2067 15.23595573 10300,6873.143,94.513,496.291,493.725,0.0
52993.0,STARLINK-4264,PAYLOAD,2022-09-08 14:00:01,15.22835829,0.0002081,53.2175,72.1083,31.088,73.1206,-0.049,-0.01063765,0.0,0 STARLINK-4264,1 52993U 22076H   22251.58334491 -.01063765  00000-0 -49000-1 0  9998,2 52993  53.2175  72.1083 0002081  31.0880  73.1206 15.22835829  1303,6875.429,94.56,498.724,495.86300000000006,0.0
52993.0,STARLINK-4264,PAYLOAD,2022-09-08 22:00:00,15.22073919,0.000169,53.2175,70.5789,46.5382,85.6215,-0.049932,-0.01059969,0.0,0 STARLINK-4264,1 52993U 22076H   22251.91667824 -.01059969  00000-0 -49932-1 0  9999,2 52993  53.2175  70.5789 0001690  46.5382  85.6215 15.22073919  1303,6877.723000000001,94.608,500.75,498.426,0.0
52993.0,STARLINK-4264,PAYLOAD,2022-09-09 06:00:00,15.21314018,0.000184,53.2175,69.0496,40.7241,118.4742,-0.051039,-0.01059446,0.0,0 STARLINK-4264,1 52993U 22076H   22252.25001157 -.01059446  00000-0 -51039-1 0  9999,2 52993  53.2175  69.0496 0001840  40.7241 118.4742 15.21314018 10462,6880.013000000001,94.655,503.144,500.612,0.0
52993.0,STARLINK-4264,PAYLOAD,2022-09-09 14:00:01,15.20556425,0.0001867,53.2176,67.5204,42.5276,142.7963,-0.052325,-0.01061937,0.0,0 STARLINK-4264,1 52993U 22076H   22252.58334491 -.01061937  00000-0 -52325-1 0  9992,2 52993  53.2176  67.5204 0001867  42.5276 142.7963 15.20556425  1307,6882.2980000000025,94.702,505.448,502.878,0.0
52993.0,STARLINK-4264,PAYLOAD,2022-09-09 22:00:00,15.1979413,0.0001893,53.2174,65.9961,40.7362,169.8008,-0.053239,-0.01057032,0.0,0 STARLINK-4264,1 52993U 22076H   22252.91667824 -.01057032  00000-0 -53239-1 0  9994,2 52993  53.2174  65.9961 0001893  40.7362 169.8008 15.19794130  1307,6884.599,94.75,507.768,505.161,0.0
52993.0,STARLINK-4264,PAYLOAD,2022-09-10 06:00:02,15.19037524,0.0001605,53.2174,64.4702,51.1317,183.769,-0.054697,-0.01061748,0.0,0 STARLINK-4264,1 52993U 22076H   22253.25002315 -.01061748  00000-0 -54697-1 0  9998,2 52993  53.2174  64.4702 0001605  51.1317 183.7690 15.19037524 10614,6886.885,94.797,509.855,507.645,0.0
52993.0,STARLINK-4264,PAYLOAD,2022-09-10 14:00:01,15.18277834,0.000161,53.2174,62.9485,51.6148,206.6101,-0.055895,-0.01074756,0.0,0 STARLINK-4264,1 52993U 22076H   22253.58334491 -.01074756  00000-0 -55895-1 0  9991,2 52993  53.2174  62.9485 0001610  51.6148 206.6101 15.18277834  1305,6889.182,94.844,512.156,509.93800000000016,0.0
52993.0,STARLINK-4264,PAYLOAD,2022-09-10 22:00:00,15.17516279,0.0001631999999999,53.2173,61.4293,46.5077,234.192,-0.056914,-0.01070806,0.0,0 STARLINK-4264,1 52993U 22076H   22253.91667824 -.01070806  00000-0 -56914-1 0  9992,2 52993  53.2173  61.4293 0001632  46.5077 234.1920 15.17516279  1306,6891.486999999999,94.892,514.477,512.227,0.0
52993.0,STARLINK-4264,PAYLOAD,2022-09-11 06:00:00,15.16762093,0.0001743,53.2175,59.9101,40.3996,261.8609,-0.058677,-0.0107958,0.0,0 STARLINK-4264,1 52993U 22076H   22254.25001157 -.01079580  00000-0 -58677-1 0  9997,2 52993  53.2175  59.9101 0001743  40.3996 261.8609 15.16762093 10760,6893.771,94.939,516.8380000000002,514.435,0.0
52993.0,STARLINK-4264,PAYLOAD,2022-09-11 14:00:01,15.15999898,0.0001742,53.2174,58.3922,38.4909,284.421,-0.059733,-0.01075549,0.0,0 STARLINK-4264,1 52993U 22076H   22254.58334491 -.01075549  00000-0 -59733-1 0  9998,2 52993  53.2174  58.3922 0001742  38.4909 284.4210 15.15999898  1307,6896.081999999999,94.987,519.148,516.745,0.0
52993.0,STARLINK-4264,PAYLOAD,2022-09-11 22:00:00,15.15238702,0.0001804,53.2172,56.8784,34.6498,307.9989,-0.0608429999999999,-0.01072236,0.0,0 STARLINK-4264,1 52993U 22076H   22254.91667824 -.01072236  00000-0 -60843-1 0  9998,2 52993  53.2172  56.8784 0001804  34.6498 307.9989 15.15238702  1308,6898.391,95.035,521.5,519.012,0.0
52993.0,STARLINK-4264,PAYLOAD,2022-09-12 06:00:00,15.14480427,0.000181,53.2176,55.3643,36.7275,324.7459,-0.06236,-0.0107528,0.0,0 STARLINK-4264,1 52993U 22076H   22255.25001157 -.01075280  00000-0 -62360-1 0  9995,2 52993  53.2176  55.3643 0001810  36.7275 324.7459 15.14480427 10911,6900.693,95.082,523.807,521.309,0.0
52993.0,STARLINK-4264,PAYLOAD,2022-09-12 14:00:01,15.13721708,0.0001839,53.2175,53.8521,34.4032,344.9818,-0.063773,-0.01076193,0.0,0 STARLINK-4264,1 52993U 22076H   22255.58334491 -.01076193  00000-0 -63773-1 0  9994,2 52993  53.2175  53.8521 0001839  34.4032 344.9818 15.13721708  1300,6902.999,95.13,526.134,523.595,0.0
52993.0,STARLINK-4264,PAYLOAD,2022-09-12 22:00:00,15.13002145,0.000186,53.2173,52.3452,31.7733,4.5857,-0.068301,-0.01125397,0.0,0 STARLINK-4264,1 52993U 22076H   22255.91667824 -.01125397  00000-0 -68301-1 0  9993,2 52993  53.2173  52.3452 0001860  31.7733   4.5857 15.13002145  1306,6905.188,95.175,528.337,525.768,0.0
52993.0,STARLINK-4264,PAYLOAD,2022-09-13 06:00:00,15.12200096,0.0001824,53.2173,50.8335,34.224000000000004,18.248,-0.0663059999999999,-0.01072315,0.0,0 STARLINK-4264,1 52993U 22076H   22256.25001157 -.01072315  00000-0 -66306-1 0  9996,2 52993  53.2173  50.8335 0001824  34.2240  18.2480 15.12200096 11062,6907.629,95.225,530.754,528.234,0.0
52993.0,STARLINK-4264,PAYLOAD,2022-09-13 14:00:01,15.1144272,0.0001918,53.2174,49.328,34.9401,32.7043,-0.067945,-0.01075544,0.0,0 STARLINK-4264,1 52993U 22076H   22256.58334491 -.01075544  00000-0 -67945-1 0  9999,2 52993  53.2174  49.3280 0001918  34.9401  32.7043 15.11442720  1308,6909.936,95.273,533.127,530.476,0.0
52993.0,STARLINK-4264,PAYLOAD,2022-09-13 22:00:00,15.10680935,0.0002002,53.2171,47.8243,32.9228,48.9827,-0.069076,-0.01070862,0.0,0 STARLINK-4264,1 52993U 22076H   22256.91667824 -.01070862  00000-0 -69076-1 0  9990,2 52993  53.2171  47.8243 0002002  32.9228  48.9827 15.10680935  1307,6912.259,95.321,535.508,532.74,0.0
52993.0,STARLINK-4264,PAYLOAD,2022-09-14 06:00:00,15.09879485,0.0001851999999999,53.2173,46.3204,40.2587,55.0051,-0.063941,-0.00964865,0.0,0 STARLINK-4264,1 52993U 22076H   22257.25001157 -.00964865  00000-0 -63941-1 0  9998,2 52993  53.2173  46.3204 0001852  40.2587  55.0051 15.09879485 11219,6914.705,95.372,537.851,535.289,0.0
52993.0,STARLINK-4264,PAYLOAD,2022-09-14 14:00:01,15.09105052,0.0001449,53.2181,44.824,58.9587,48.7343,-0.024648,-0.00375319,0.0,0 STARLINK-4264,1 52993U 22076H   22257.58334491 -.00375319  00000-0 -24648-1 0  9995,2 52993  53.2181  44.8240 0001449  58.9587  48.7343 15.09105052  1303,6917.07,95.421,539.938,537.933,0.0
52993.0,STARLINK-4264,PAYLOAD,2022-09-14 22:00:00,15.08755628,0.0001972,53.2194,43.3369,44.9472,74.3722,0.010215,0.00165751,0.0,0 STARLINK-4264,1 52993U 22076H   22257.91667824  .00165751  00000-0  10215-1 0  9991,2 52993  53.2194  43.3369 0001972  44.9472  74.3722 15.08755628  1307,6918.138000000001,95.443,541.368,538.639,0.0
52993.0,STARLINK-4264,PAYLOAD,2022-09-15 06:00:00,15.08843148,0.0001672,53.2188,41.8391,46.3468,84.5432,0.0034298,0.00054726,0.0,0 STARLINK-4264,1 52993U 22076H   22258.25001157  .00054726  00000-0  34298-2 0  9997,2 52993  53.2188  41.8391 0001672  46.3468  84.5432 15.08843148 11370,6917.871,95.437,540.8919999999998,538.5790000000002,0.0
52993.0,STARLINK-4264,PAYLOAD,2022-09-15 14:00:01,15.08905201,0.0001783,53.2188,40.3438,45.0293,97.4775,-0.003979,-0.00063172,0.0,0 STARLINK-4264,1 52993U 22076H   22258.58334491 -.00063172  00000-0 -39790-2 0  9992,2 52993  53.2188  40.3438 0001783  45.0293  97.4775 15.08905201  1305,6917.681,95.433,540.78,538.313,0.0
52993.0,STARLINK-4264,PAYLOAD,2022-09-15 22:00:00,15.08859136,0.0001891,53.2184,38.848,40.3361,113.8189,-0.0014352,-0.00023069,0.0,0 STARLINK-4264,1 52993U 22076H   22258.91667824 -.00023069  00000-0 -14352-2 0  9996,2 52993  53.2184  38.8480 0001891  40.3361 113.8189 15.08859136  1301,6917.821999999999,95.436,540.995,538.379,0.0
52993.0,STARLINK-4264,PAYLOAD,2022-09-16 02:00:01,15.08844895,0.0001798,53.2185,38.0989,44.3533,295.6066,-0.0014717,-0.00023637,0.0,0 STARLINK-4264,1 52993U 22076H   22259.08334491 -.00023637  00000-0 -14717-2 0  9992,2 52993  53.2185  38.0989 0001798  44.3533 295.6066 15.08844895 11499,6917.865,95.437,540.974,538.487,0.0
52993.0,STARLINK-4264,PAYLOAD,2022-09-16 14:00:01,15.08854989,0.0001771999999999,53.2185,35.8552,45.0099,132.3257,-0.0043442,-0.00068795,0.0,0 STARLINK-4264,1 52993U 22076H   22259.58334491 -.00068795  00000-0 -43442-2 0  9998,2 52993  53.2185  35.8552 0001772  45.0099 132.3257 15.08854989  1300,6917.835,95.437,540.925,538.474,0.0
